ISS OBJECT XW           
1 66910U 98067XW  26115.20625026  .00393226  67486-4  13939-2 0  9997
2 66910  51.6157 185.4075 0011489 352.5049   7.5783 15.88361317 22524
ISS OBJECT XY           
1 66912U 98067XY  26115.21180757  .00149132  00000+0  10101-2 0  9994
2 66912  51.6240 190.0272 0007964 349.8148  10.2688 15.73988683 22454
KNACKSAT-2              
1 67683U 98067XZ  26115.22838914  .00042934  00000+0  61740-3 0  9994
2 67683  51.6297 199.9278 0012273   1.5370 358.5656 15.55551078 12023
CORAL                   
1 67684U 98067YA  26115.25391304  .00110464  00000+0  11994-2 0  9994
2 67684  51.6266 197.8441 0016288 354.5176   5.5637 15.62486409 12058
GXIBA-1                 
1 67685U 98067YB  26114.94936227  .00037669  00000+0  52684-3 0  9996
2 67685  51.6290 201.0646 0014229 357.6816   2.4107 15.56335226 11981
UITMSAT-2               
1 67686U 98067YC  26114.46329697  .00048355  00000+0  63731-3 0  9990
2 67686  51.6292 203.0720 0011209 336.7445  23.3038 15.57859659 11910
HMU-SAT2                
1 67687U 98067YD  26114.95948421  .00036950  00000+0  52450-3 0  9991
2 67687  51.6300 201.1372 0010447 340.1745  19.8839 15.55997686 11907
LEOPARD                 
1 67688U 98067YE  26115.25006150  .00055236  00000+0  74371-3 0  9994
2 67688  51.6294 199.3265 0010851 340.0699  19.9867 15.57236025 11957
CREW DRAGON 12          
1 67796U 26031A   26115.16771349  .00010683  00000+0  20209-3 0  9993
2 67796  51.6320 202.5215 0006920 348.0684  12.0139 15.48944607563683
PROGRESS-MS 33          
1 68319U 26058A   26115.16771349  .00010683  00000+0  20209-3 0  9994
2 68319  51.6320 202.5215 0006920 348.0684  12.0139 15.48944607  5192
CYGNUS NG-24            
1 68689U 26079A   26115.16771349  .00010683  00000+0  20209-3 0  9997
2 68689  51.6320 202.5215 0006920 348.0684  12.0139 15.48944607  2166
