[{"OBJECT_NAME":"ISS OBJECT XW","OBJECT_ID":"1998-067XW","EPOCH":"2026-04-25T04:57:00.022464","MEAN_MOTION":15.88361317,"ECCENTRICITY":0.00114896,"INCLINATION":51.6157,"RA_OF_ASC_NODE":185.4075,"ARG_OF_PERICENTER":352.5049,"MEAN_ANOMALY":7.5783,"EPHEMERIS_TYPE":0,"CLASSIFICATION_TYPE":"U","NORAD_CAT_ID":66910,"ELEMENT_SET_NO":999,"REV_AT_EPOCH":2252,"BSTAR":0.0013939265,"MEAN_MOTION_DOT":0.00393226,"MEAN_MOTION_DDOT":6.7486028e-5},{"OBJECT_NAME":"ISS OBJECT XY","OBJECT_ID":"1998-067XY","EPOCH":"2026-04-25T05:05:00.174048","MEAN_MOTION":15.73988683,"ECCENTRICITY":0.00079646,"INCLINATION":51.624,"RA_OF_ASC_NODE":190.0272,"ARG_OF_PERICENTER":349.8148,"MEAN_ANOMALY":10.2688,"EPHEMERIS_TYPE":0,"CLASSIFICATION_TYPE":"U","NORAD_CAT_ID":66912,"ELEMENT_SET_NO":999,"REV_AT_EPOCH":2245,"BSTAR":0.0010100594,"MEAN_MOTION_DOT":0.00149132,"MEAN_MOTION_DDOT":0},{"OBJECT_NAME":"KNACKSAT-2","OBJECT_ID":"1998-067XZ","EPOCH":"2026-04-25T05:28:52.821696","MEAN_MOTION":15.55551078,"ECCENTRICITY":0.00122735,"INCLINATION":51.6297,"RA_OF_ASC_NODE":199.9278,"ARG_OF_PERICENTER":1.537,"MEAN_ANOMALY":358.5656,"EPHEMERIS_TYPE":0,"CLASSIFICATION_TYPE":"U","NORAD_CAT_ID":67683,"ELEMENT_SET_NO":999,"REV_AT_EPOCH":1202,"BSTAR":0.00061739813,"MEAN_MOTION_DOT":0.00042934,"MEAN_MOTION_DDOT":0},{"OBJECT_NAME":"CORAL","OBJECT_ID":"1998-067YA","EPOCH":"2026-04-25T06:05:38.086656","MEAN_MOTION":15.62486409,"ECCENTRICITY":0.00162882,"INCLINATION":51.6266,"RA_OF_ASC_NODE":197.8441,"ARG_OF_PERICENTER":354.5176,"MEAN_ANOMALY":5.5637,"EPHEMERIS_TYPE":0,"CLASSIFICATION_TYPE":"U","NORAD_CAT_ID":67684,"ELEMENT_SET_NO":999,"REV_AT_EPOCH":1205,"BSTAR":0.0011993852,"MEAN_MOTION_DOT":0.00110464,"MEAN_MOTION_DDOT":0},{"OBJECT_NAME":"GXIBA-1","OBJECT_ID":"1998-067YB","EPOCH":"2026-04-24T22:47:04.900128","MEAN_MOTION":15.56335226,"ECCENTRICITY":0.0014229,"INCLINATION":51.629,"RA_OF_ASC_NODE":201.0646,"ARG_OF_PERICENTER":357.6816,"MEAN_ANOMALY":2.4107,"EPHEMERIS_TYPE":0,"CLASSIFICATION_TYPE":"U","NORAD_CAT_ID":67685,"ELEMENT_SET_NO":999,"REV_AT_EPOCH":1198,"BSTAR":0.00052684,"MEAN_MOTION_DOT":0.00037669,"MEAN_MOTION_DDOT":0},{"OBJECT_NAME":"UITMSAT-2","OBJECT_ID":"1998-067YC","EPOCH":"2026-04-24T11:07:08.858208","MEAN_MOTION":15.57859659,"ECCENTRICITY":0.00112091,"INCLINATION":51.6292,"RA_OF_ASC_NODE":203.072,"ARG_OF_PERICENTER":336.7445,"MEAN_ANOMALY":23.3038,"EPHEMERIS_TYPE":0,"CLASSIFICATION_TYPE":"U","NORAD_CAT_ID":67686,"ELEMENT_SET_NO":999,"REV_AT_EPOCH":1191,"BSTAR":0.00063730955,"MEAN_MOTION_DOT":0.00048355,"MEAN_MOTION_DDOT":0},{"OBJECT_NAME":"HMU-SAT2","OBJECT_ID":"1998-067YD","EPOCH":"2026-04-24T23:01:39.435744","MEAN_MOTION":15.55997686,"ECCENTRICITY":0.00104476,"INCLINATION":51.63,"RA_OF_ASC_NODE":201.1372,"ARG_OF_PERICENTER":340.1745,"MEAN_ANOMALY":19.8839,"EPHEMERIS_TYPE":0,"CLASSIFICATION_TYPE":"U","NORAD_CAT_ID":67687,"ELEMENT_SET_NO":999,"REV_AT_EPOCH":1190,"BSTAR":0.00052450052,"MEAN_MOTION_DOT":0.0003695,"MEAN_MOTION_DDOT":0},{"OBJECT_NAME":"LEOPARD","OBJECT_ID":"1998-067YE","EPOCH":"2026-04-25T06:00:05.313600","MEAN_MOTION":15.57236025,"ECCENTRICITY":0.00108511,"INCLINATION":51.6294,"RA_OF_ASC_NODE":199.3265,"ARG_OF_PERICENTER":340.0699,"MEAN_ANOMALY":19.9867,"EPHEMERIS_TYPE":0,"CLASSIFICATION_TYPE":"U","NORAD_CAT_ID":67688,"ELEMENT_SET_NO":999,"REV_AT_EPOCH":1195,"BSTAR":0.00074371331,"MEAN_MOTION_DOT":0.00055236,"MEAN_MOTION_DDOT":0},{"OBJECT_NAME":"CREW DRAGON 12","OBJECT_ID":"2026-031A","EPOCH":"2026-04-25T04:01:30.445536","MEAN_MOTION":15.48944607,"ECCENTRICITY":0.00069208,"INCLINATION":51.632,"RA_OF_ASC_NODE":202.5215,"ARG_OF_PERICENTER":348.0684,"MEAN_ANOMALY":12.0139,"EPHEMERIS_TYPE":0,"CLASSIFICATION_TYPE":"U","NORAD_CAT_ID":67796,"ELEMENT_SET_NO":999,"REV_AT_EPOCH":56368,"BSTAR":0.00020209254,"MEAN_MOTION_DOT":0.00010683,"MEAN_MOTION_DDOT":0},{"OBJECT_NAME":"PROGRESS-MS 33","OBJECT_ID":"2026-058A","EPOCH":"2026-04-25T04:01:30.445536","MEAN_MOTION":15.48944607,"ECCENTRICITY":0.00069208,"INCLINATION":51.632,"RA_OF_ASC_NODE":202.5215,"ARG_OF_PERICENTER":348.0684,"MEAN_ANOMALY":12.0139,"EPHEMERIS_TYPE":0,"CLASSIFICATION_TYPE":"U","NORAD_CAT_ID":68319,"ELEMENT_SET_NO":999,"REV_AT_EPOCH":519,"BSTAR":0.00020209254,"MEAN_MOTION_DOT":0.00010683,"MEAN_MOTION_DDOT":0},{"OBJECT_NAME":"CYGNUS NG-24","OBJECT_ID":"2026-079A","EPOCH":"2026-04-25T04:01:30.445536","MEAN_MOTION":15.48944607,"ECCENTRICITY":0.00069208,"INCLINATION":51.632,"RA_OF_ASC_NODE":202.5215,"ARG_OF_PERICENTER":348.0684,"MEAN_ANOMALY":12.0139,"EPHEMERIS_TYPE":0,"CLASSIFICATION_TYPE":"U","NORAD_CAT_ID":68689,"ELEMENT_SET_NO":999,"REV_AT_EPOCH":216,"BSTAR":0.00020209254,"MEAN_MOTION_DOT":0.00010683,"MEAN_MOTION_DDOT":0}]
